[{"CCSDS_OMM_VERS":"3.0","COMMENT":"GENERATED VIA SPACE-TRACK.ORG API","CREATION_DATE":"2026-06-08T10:56:51","ORIGINATOR":"18 SPCS","OBJECT_NAME":"NAVSTAR 83 (USA 440)","OBJECT_ID":"2024-242A","CENTER_NAME":"EARTH","REF_FRAME":"TEME","TIME_SYSTEM":"UTC","MEAN_ELEMENT_THEORY":"SGP4","EPOCH":"2026-06-07T20:53:43.918080","MEAN_MOTION":"2.00571460","ECCENTRICITY":"0.00173904","INCLINATION":"54.8519","RA_OF_ASC_NODE":"334.5596","ARG_OF_PERICENTER":"4.1176","MEAN_ANOMALY":"357.6425","EPHEMERIS_TYPE":"0","CLASSIFICATION_TYPE":"U","NORAD_CAT_ID":"62339","ELEMENT_SET_NO":"999","REV_AT_EPOCH":"1107","BSTAR":"0.00000000000000","MEAN_MOTION_DOT":"-0.00000062","MEAN_MOTION_DDOT":"0.0000000000000","SEMIMAJOR_AXIS":"26559.654","PERIOD":"717.949","APOAPSIS":"20227.708","PERIAPSIS":"20135.331","OBJECT_TYPE":"PAYLOAD","RCS_SIZE":"LARGE","COUNTRY_CODE":"US","LAUNCH_DATE":"2024-12-17","SITE":"AFETR","DECAY_DATE":null,"FILE":"5237053","GP_ID":"328039248","TLE_LINE0":"0 NAVSTAR 83 (USA 440)","TLE_LINE1":"1 62339U 24242A   26158.87064720 -.00000062  00000-0  00000-0 0  9992","TLE_LINE2":"2 62339  54.8519 334.5596 0017390   4.1176 357.6425  2.00571460 11077"},{"CCSDS_OMM_VERS":"3.0","COMMENT":"GENERATED VIA SPACE-TRACK.ORG API","CREATION_DATE":"2026-06-08T07:36:31","ORIGINATOR":"18 SPCS","OBJECT_NAME":"NAVSTAR 83 (USA 440)","OBJECT_ID":"2024-242A","CENTER_NAME":"EARTH","REF_FRAME":"TEME","TIME_SYSTEM":"UTC","MEAN_ELEMENT_THEORY":"SGP4","EPOCH":"2026-06-07T20:53:43.918080","MEAN_MOTION":"2.00571460","ECCENTRICITY":"0.00173900","INCLINATION":"54.8519","RA_OF_ASC_NODE":"334.5596","ARG_OF_PERICENTER":"4.1176","MEAN_ANOMALY":"357.6425","EPHEMERIS_TYPE":"0","CLASSIFICATION_TYPE":"U","NORAD_CAT_ID":"62339","ELEMENT_SET_NO":"999","REV_AT_EPOCH":"1107","BSTAR":"0.00000000000000","MEAN_MOTION_DOT":"-0.00000062","MEAN_MOTION_DDOT":"0.0000000000000","SEMIMAJOR_AXIS":"26559.654","PERIOD":"717.949","APOAPSIS":"20227.707","PERIAPSIS":"20135.332","OBJECT_TYPE":"PAYLOAD","RCS_SIZE":"LARGE","COUNTRY_CODE":"US","LAUNCH_DATE":"2024-12-17","SITE":"AFETR","DECAY_DATE":null,"FILE":"5236999","GP_ID":"328008278","TLE_LINE0":"0 NAVSTAR 83 (USA 440)","TLE_LINE1":"1 62339U 24242A   26158.87064720 -.00000062  00000-0  00000+0 0  9991","TLE_LINE2":"2 62339  54.8519 334.5596 0017390   4.1176 357.6425  2.00571460 11077"},{"CCSDS_OMM_VERS":"3.0","COMMENT":"GENERATED VIA SPACE-TRACK.ORG API","CREATION_DATE":"2026-06-10T02:40:42","ORIGINATOR":"18 SPCS","OBJECT_NAME":"NAVSTAR 83 (USA 440)","OBJECT_ID":"2024-242A","CENTER_NAME":"EARTH","REF_FRAME":"TEME","TIME_SYSTEM":"UTC","MEAN_ELEMENT_THEORY":"SGP4","EPOCH":"2026-06-09T15:32:00.765312","MEAN_MOTION":"2.00571369","ECCENTRICITY":"0.00173405","INCLINATION":"54.8506","RA_OF_ASC_NODE":"334.4875","ARG_OF_PERICENTER":"4.0342","MEAN_ANOMALY":"200.5573","EPHEMERIS_TYPE":"0","CLASSIFICATION_TYPE":"U","NORAD_CAT_ID":"62339","ELEMENT_SET_NO":"999","REV_AT_EPOCH":"1110","BSTAR":"0.00000000000000","MEAN_MOTION_DOT":"-0.00000062","MEAN_MOTION_DDOT":"0.0000000000000","SEMIMAJOR_AXIS":"26559.662","PERIOD":"717.949","APOAPSIS":"20227.583","PERIAPSIS":"20135.472","OBJECT_TYPE":"PAYLOAD","RCS_SIZE":"LARGE","COUNTRY_CODE":"US","LAUNCH_DATE":"2024-12-17","SITE":"AFETR","DECAY_DATE":null,"FILE":"5240081","GP_ID":"328454511","TLE_LINE0":"0 NAVSTAR 83 (USA 440)","TLE_LINE1":"1 62339U 24242A   26160.64723108 -.00000062  00000-0  00000-0 0  9992","TLE_LINE2":"2 62339  54.8506 334.4875 0017340   4.0342 200.5573  2.00571369 11103"},{"CCSDS_OMM_VERS":"3.0","COMMENT":"GENERATED VIA SPACE-TRACK.ORG API","CREATION_DATE":"2026-06-10T11:00:42","ORIGINATOR":"18 SPCS","OBJECT_NAME":"NAVSTAR 83 (USA 440)","OBJECT_ID":"2024-242A","CENTER_NAME":"EARTH","REF_FRAME":"TEME","TIME_SYSTEM":"UTC","MEAN_ELEMENT_THEORY":"SGP4","EPOCH":"2026-06-09T20:48:16.099200","MEAN_MOTION":"2.00571348","ECCENTRICITY":"0.00173168","INCLINATION":"54.8503","RA_OF_ASC_NODE":"334.4786","ARG_OF_PERICENTER":"3.9741","MEAN_ANOMALY":"359.2011","EPHEMERIS_TYPE":"0","CLASSIFICATION_TYPE":"U","NORAD_CAT_ID":"62339","ELEMENT_SET_NO":"999","REV_AT_EPOCH":"1111","BSTAR":"0.00000000000000","MEAN_MOTION_DOT":"-0.00000062","MEAN_MOTION_DDOT":"0.0000000000000","SEMIMAJOR_AXIS":"26559.664","PERIOD":"717.949","APOAPSIS":"20227.522","PERIAPSIS":"20135.536","OBJECT_TYPE":"PAYLOAD","RCS_SIZE":"LARGE","COUNTRY_CODE":"US","LAUNCH_DATE":"2024-12-17","SITE":"AFETR","DECAY_DATE":null,"FILE":"5240916","GP_ID":"328568085","TLE_LINE0":"0 NAVSTAR 83 (USA 440)","TLE_LINE1":"1 62339U 24242A   26160.86685300 -.00000062  00000-0  00000-0 0  9997","TLE_LINE2":"2 62339  54.8503 334.4786 0017317   3.9741 359.2011  2.00571348 11113"},{"CCSDS_OMM_VERS":"3.0","COMMENT":"GENERATED VIA SPACE-TRACK.ORG API","CREATION_DATE":"2026-06-10T07:26:46","ORIGINATOR":"18 SPCS","OBJECT_NAME":"NAVSTAR 83 (USA 440)","OBJECT_ID":"2024-242A","CENTER_NAME":"EARTH","REF_FRAME":"TEME","TIME_SYSTEM":"UTC","MEAN_ELEMENT_THEORY":"SGP4","EPOCH":"2026-06-09T20:48:16.099200","MEAN_MOTION":"2.00571348","ECCENTRICITY":"0.00173170","INCLINATION":"54.8503","RA_OF_ASC_NODE":"334.4786","ARG_OF_PERICENTER":"3.9741","MEAN_ANOMALY":"359.2010","EPHEMERIS_TYPE":"0","CLASSIFICATION_TYPE":"U","NORAD_CAT_ID":"62339","ELEMENT_SET_NO":"999","REV_AT_EPOCH":"1111","BSTAR":"0.00000000000000","MEAN_MOTION_DOT":"-0.00000062","MEAN_MOTION_DDOT":"0.0000000000000","SEMIMAJOR_AXIS":"26559.664","PERIOD":"717.949","APOAPSIS":"20227.523","PERIAPSIS":"20135.536","OBJECT_TYPE":"PAYLOAD","RCS_SIZE":"LARGE","COUNTRY_CODE":"US","LAUNCH_DATE":"2024-12-17","SITE":"AFETR","DECAY_DATE":null,"FILE":"5240774","GP_ID":"328529261","TLE_LINE0":"0 NAVSTAR 83 (USA 440)","TLE_LINE1":"1 62339U 24242A   26160.86685300 -.00000062  00000-0  00000+0 0  9996","TLE_LINE2":"2 62339  54.8503 334.4786 0017317   3.9741 359.2010  2.00571348 11112"},{"CCSDS_OMM_VERS":"3.0","COMMENT":"GENERATED VIA SPACE-TRACK.ORG API","CREATION_DATE":"2026-06-11T11:04:42","ORIGINATOR":"18 SPCS","OBJECT_NAME":"NAVSTAR 83 (USA 440)","OBJECT_ID":"2024-242A","CENTER_NAME":"EARTH","REF_FRAME":"TEME","TIME_SYSTEM":"UTC","MEAN_ELEMENT_THEORY":"SGP4","EPOCH":"2026-06-10T20:45:32.983776","MEAN_MOTION":"2.00571298","ECCENTRICITY":"0.00173081","INCLINATION":"54.8505","RA_OF_ASC_NODE":"334.4380","ARG_OF_PERICENTER":"3.9284","MEAN_ANOMALY":"359.9607","EPHEMERIS_TYPE":"0","CLASSIFICATION_TYPE":"U","NORAD_CAT_ID":"62339","ELEMENT_SET_NO":"999","REV_AT_EPOCH":"1113","BSTAR":"0.00000000000000","MEAN_MOTION_DOT":"-0.00000065","MEAN_MOTION_DDOT":"0.0000000000000","SEMIMAJOR_AXIS":"26559.669","PERIOD":"717.949","APOAPSIS":"20227.503","PERIAPSIS":"20135.564","OBJECT_TYPE":"PAYLOAD","RCS_SIZE":"LARGE","COUNTRY_CODE":"US","LAUNCH_DATE":"2024-12-17","SITE":"AFETR","DECAY_DATE":null,"FILE":"5241797","GP_ID":"328708218","TLE_LINE0":"0 NAVSTAR 83 (USA 440)","TLE_LINE1":"1 62339U 24242A   26161.86496509 -.00000065  00000-0  00000-0 0  9992","TLE_LINE2":"2 62339  54.8505 334.4380 0017308   3.9284 359.9607  2.00571298 11131"},{"CCSDS_OMM_VERS":"3.0","COMMENT":"GENERATED VIA SPACE-TRACK.ORG API","CREATION_DATE":"2026-06-13T16:46:33","ORIGINATOR":"18 SPCS","OBJECT_NAME":"NAVSTAR 83 (USA 440)","OBJECT_ID":"2024-242A","CENTER_NAME":"EARTH","REF_FRAME":"TEME","TIME_SYSTEM":"UTC","MEAN_ELEMENT_THEORY":"SGP4","EPOCH":"2026-06-13T08:49:23.988864","MEAN_MOTION":"2.00571230","ECCENTRICITY":"0.00171880","INCLINATION":"54.8503","RA_OF_ASC_NODE":"334.3363","ARG_OF_PERICENTER":"3.9293","MEAN_ANOMALY":"7.0837","EPHEMERIS_TYPE":"0","CLASSIFICATION_TYPE":"U","NORAD_CAT_ID":"62339","ELEMENT_SET_NO":"999","REV_AT_EPOCH":"1118","BSTAR":"0.00000000000000","MEAN_MOTION_DOT":"-0.00000075","MEAN_MOTION_DDOT":"0.0000000000000","SEMIMAJOR_AXIS":"26559.675","PERIOD":"717.949","APOAPSIS":"20227.190","PERIAPSIS":"20135.889","OBJECT_TYPE":"PAYLOAD","RCS_SIZE":"LARGE","COUNTRY_CODE":"US","LAUNCH_DATE":"2024-12-17","SITE":"AFETR","DECAY_DATE":null,"FILE":"5244193","GP_ID":"329065214","TLE_LINE0":"0 NAVSTAR 83 (USA 440)","TLE_LINE1":"1 62339U 24242A   26164.36763876 -.00000075  00000-0  00000+0 0  9994","TLE_LINE2":"2 62339  54.8503 334.3363 0017188   3.9293   7.0837  2.00571230 11182"},{"CCSDS_OMM_VERS":"3.0","COMMENT":"GENERATED VIA SPACE-TRACK.ORG API","CREATION_DATE":"2026-06-13T17:55:43","ORIGINATOR":"18 SPCS","OBJECT_NAME":"NAVSTAR 83 (USA 440)","OBJECT_ID":"2024-242A","CENTER_NAME":"EARTH","REF_FRAME":"TEME","TIME_SYSTEM":"UTC","MEAN_ELEMENT_THEORY":"SGP4","EPOCH":"2026-06-13T08:49:23.989728","MEAN_MOTION":"2.00571230","ECCENTRICITY":"0.00171883","INCLINATION":"54.8503","RA_OF_ASC_NODE":"334.3363","ARG_OF_PERICENTER":"3.9293","MEAN_ANOMALY":"7.0837","EPHEMERIS_TYPE":"0","CLASSIFICATION_TYPE":"U","NORAD_CAT_ID":"62339","ELEMENT_SET_NO":"999","REV_AT_EPOCH":"1118","BSTAR":"0.00000000000000","MEAN_MOTION_DOT":"-0.00000075","MEAN_MOTION_DDOT":"0.0000000000000","SEMIMAJOR_AXIS":"26559.675","PERIOD":"717.949","APOAPSIS":"20227.191","PERIAPSIS":"20135.888","OBJECT_TYPE":"PAYLOAD","RCS_SIZE":"LARGE","COUNTRY_CODE":"US","LAUNCH_DATE":"2024-12-17","SITE":"AFETR","DECAY_DATE":null,"FILE":"5244319","GP_ID":"329105065","TLE_LINE0":"0 NAVSTAR 83 (USA 440)","TLE_LINE1":"1 62339U 24242A   26164.36763877 -.00000075  00000-0  00000-0 0  9996","TLE_LINE2":"2 62339  54.8503 334.3363 0017188   3.9293   7.0837  2.00571230 11182"}]